[{"OBJECT_NAME":"FORMOSAT 7-6","OBJECT_ID":"2019-036Q","EPOCH":"2026-03-09T22:15:37.988928","MEAN_MOTION":14.96031608,"ECCENTRICITY":0.00012688,"INCLINATION":23.9972,"RA_OF_ASC_NODE":278.5868,"ARG_OF_PERICENTER":36.7738,"MEAN_ANOMALY":323.285,"EPHEMERIS_TYPE":0,"CLASSIFICATION_TYPE":"U","NORAD_CAT_ID":44353,"ELEMENT_SET_NO":999,"REV_AT_EPOCH":36693,"BSTAR":0.0003091038,"MEAN_MOTION_DOT":3.857e-5,"MEAN_MOTION_DDOT":0},{"OBJECT_NAME":"ELECTRON KICK STAGE R\/B","OBJECT_ID":"2024-172G","EPOCH":"2026-03-09T20:17:57.250464","MEAN_MOTION":14.97730495,"ECCENTRICITY":0.00502098,"INCLINATION":98.0041,"RA_OF_ASC_NODE":176.7734,"ARG_OF_PERICENTER":80.5411,"MEAN_ANOMALY":280.148,"EPHEMERIS_TYPE":0,"CLASSIFICATION_TYPE":"U","NORAD_CAT_ID":61226,"ELEMENT_SET_NO":999,"REV_AT_EPOCH":7982,"BSTAR":0.00056326684,"MEAN_MOTION_DOT":6.716e-5,"MEAN_MOTION_DDOT":0}]
